{
    "links": {
        "self": "http://www.neowsapp.com/rest/v1/neo/3370503?api_key=iIulBulltgU6a56xZRHN4H3l9WmuAYTsLGpBGhQ2"
    },
    "id": "3370503",
    "neo_reference_id": "3370503",
    "name": "(2007 EM26)",
    "designation": "2007 EM26",
    "nasa_jpl_url": "http://ssd.jpl.nasa.gov/sbdb.cgi?sstr=3370503",
    "absolute_magnitude_h": 22.7,
    "estimated_diameter": {
        "kilometers": {
            "estimated_diameter_min": 0.0766575574,
            "estimated_diameter_max": 0.1714115092
        },
        "meters": {
            "estimated_diameter_min": 76.6575573531,
            "estimated_diameter_max": 171.4115092306
        },
        "miles": {
            "estimated_diameter_min": 0.0476327831,
            "estimated_diameter_max": 0.1065101409
        },
        "feet": {
            "estimated_diameter_min": 251.5011804664,
            "estimated_diameter_max": 562.3737359442
        }
    },
    "is_potentially_hazardous_asteroid": false,
    "close_approach_data": [
        {
            "close_approach_date": "2007-03-09",
            "close_approach_date_full": "2007-Mar-09 00:09",
            "epoch_date_close_approach": 1173398940000,
            "relative_velocity": {
                "kilometers_per_second": "14.1127394801",
                "kilometers_per_hour": "50805.8621282722",
                "miles_per_hour": "31568.7869429811"
            },
            "miss_distance": {
                "astronomical": "0.1655892388",
                "lunar": "64.4142138932",
                "kilometers": "24771797.419401356",
                "miles": "15392481.1575804728"
            },
            "orbiting_body": "Earth"
        }
    ],
    "orbital_data": {
        "orbit_id": "9",
        "orbit_determination_date": "2017-04-06 09:06:46",
        "first_observation_date": "2007-03-12",
        "last_observation_date": "2007-03-16",
        "data_arc_in_days": 4,
        "observations_used": 40,
        "orbit_uncertainty": "9",
        "minimum_orbit_intersection": ".161132",
        "jupiter_tisserand_invariant": "4.473",
        "epoch_osculation": "2454173.5",
        "eccentricity": ".2189119986115907",
        "semi_major_axis": "1.466678959809163",
        "inclination": "26.70987254927969",
        "ascending_node_longitude": "169.226835329765",
        "orbital_period": "648.7853276207286",
        "perihelion_distance": "1.14560533739577",
        "perihelion_argument": "342.7965975604305",
        "aphelion_distance": "1.787752582222555",
        "perihelion_time": "2454153.141552395746",
        "mean_anomaly": "11.29655808402606",
        "mean_motion": ".5548830786914023",
        "equinox": "J2000",
        "orbit_class": {
            "orbit_class_type": "AMO",
            "orbit_class_description": "Near-Earth asteroid orbits similar to that of 1221 Amor",
            "orbit_class_range": "1.017 AU < q (perihelion) < 1.3 AU"
        }
    },
    "is_sentry_object": false
}